{"type": "FeatureCollection", "features": [ {"type": "Feature", "properties": {"norad_id": 61186, "name": "BEIDOU-3 M25 (C47)", "group": "beidou", "lat": -38.97737816158751, "lon": 163.3077257559155, "alt_km": 21527.572292579374, "timestamp": "2025-12-25T07:00:34.311584+00:00", "meta": {"OBJECT_NAME": "BEIDOU-3 M25 (C47)", "OBJECT_ID": "2024-168B", "EPOCH": "2025-12-24T22:47:22.891200", "MEAN_MOTION": 1.86230024, "ECCENTRICITY": 0.0005414, "INCLINATION": 54.6312, "RA_OF_ASC_NODE": 308.298, "ARG_OF_PERICENTER": 300.1536, "MEAN_ANOMALY": 60.716, "EPHEMERIS_TYPE": 0, "CLASSIFICATION_TYPE": "U", "NORAD_CAT_ID": 61186, "ELEMENT_SET_NO": 999, "REV_AT_EPOCH": 854, "BSTAR": 0, "MEAN_MOTION_DOT": -5.3e-07, "MEAN_MOTION_DDOT": 0}, "tle": {"line1": "1 61186U 24168B   25358.94957050 -.00000053  00000+0  00000+0 0  9992", "line2": "2 61186  54.6312 308.2980 0005414 300.1536  60.7160  1.86230024  8540"}}, "geometry": {"type": "Point", "coordinates": [163.3077257559155, -38.97737816158751]}}, {"type": "Feature", "properties": {"norad_id": 61187, "name": "BEIDOU-3 M27 (C49)", "group": "beidou", "lat": 4.440287602487248, "lon": -48.58838178272013, "alt_km": 21521.325415118445, "timestamp": "2025-12-25T07:00:34.311595+00:00", "meta": {"OBJECT_NAME": "BEIDOU-3 M27 (C49)", "OBJECT_ID": "2024-168C", "EPOCH": "2025-12-24T11:58:42.703968", "MEAN_MOTION": 1.86230214, "ECCENTRICITY": 0.00025498, "INCLINATION": 54.6271, "RA_OF_ASC_NODE": 308.2972, "ARG_OF_PERICENTER": 341.1652, "MEAN_ANOMALY": 212.6408, "EPHEMERIS_TYPE": 0, "CLASSIFICATION_TYPE": "U", "NORAD_CAT_ID": 61187, "ELEMENT_SET_NO": 999, "REV_AT_EPOCH": 600, "BSTAR": 0, "MEAN_MOTION_DOT": -5.3e-07, "MEAN_MOTION_DDOT": 0}, "tle": {"line1": "1 61187U 24168C   25358.49910537 -.00000053  00000+0  00000+0 0  9992", "line2": "2 61187  54.6271 308.2972 0002549 341.1652 212.6408  1.86230214  6009"}}, "geometry": {"type": "Point", "coordinates": [-48.58838178272013, 4.440287602487248]}}]}